[{"OBJECT_NAME":"STARLINK-1494","OBJECT_ID":"2020-038AG","EPOCH":"2026-03-09T11:55:54.806304","MEAN_MOTION":15.73709706,"ECCENTRICITY":0.00054124,"INCLINATION":53.048,"RA_OF_ASC_NODE":152.5788,"ARG_OF_PERICENTER":2.9213,"MEAN_ANOMALY":357.1836,"EPHEMERIS_TYPE":0,"CLASSIFICATION_TYPE":"U","NORAD_CAT_ID":45760,"ELEMENT_SET_NO":999,"REV_AT_EPOCH":31736,"BSTAR":0.00067102324,"MEAN_MOTION_DOT":0.00096828,"MEAN_MOTION_DDOT":0},{"OBJECT_NAME":"STARLINK-36750","OBJECT_ID":"2026-025C","EPOCH":"2026-03-09T22:00:01.999584","MEAN_MOTION":15.75310148,"ECCENTRICITY":0.00016547,"INCLINATION":97.2838,"RA_OF_ASC_NODE":180.5797,"ARG_OF_PERICENTER":116.0417,"MEAN_ANOMALY":127.6354,"EPHEMERIS_TYPE":0,"CLASSIFICATION_TYPE":"U","NORAD_CAT_ID":67695,"ELEMENT_SET_NO":999,"REV_AT_EPOCH":589,"BSTAR":-0.00072033267,"MEAN_MOTION_DOT":-0.00106799,"MEAN_MOTION_DDOT":0}]
